*******************************************************************************
JPL/HORIZONS              4145 Maximova (1981 SJ7)         2023-Sep-04 11:27:33
Rec #:    4145 (+COV) Soln.date: 2023-Aug-23_16:25:14   # obs: 3359 (1967-2023)
 
IAU76/J2000 helio. ecliptic osc. elements (au, days, deg., period=Julian yrs):
 
  EPOCH=  2457878.5 ! 2017-May-05.00 (TDB)         Residual RMS= .25328
   EC= .2002453703330998   QR= 1.816784521615983   TP= 2458497.9651950551
   OM= 292.7578305936229   W=  35.46064411344013   IN= 4.865366406450661
   A= 2.271677404821874    MA= 181.6796135245978   ADIST= 2.726570288027765
   PER= 3.42396            N= .287861833           ANGMOM= .025402015
   DAN= 1.8748             DDN= 2.60556            L= 328.1208009
   B= 2.8203591            MOID= .807989           TP= 2019-Jan-14.4651950551
 
Asteroid physical parameters (km, seconds, rotational period in hours):
   GM= n.a.                RAD= 2.633              ROTPER= 19.872
   H= 13.66                G= .150                 B-V= n.a.
                           ALBEDO= .305            STYP= n.a.

ASTEROID comments: 
1: soln ref.= JPL#56, OCC=0
2: source=ORB
*******************************************************************************


*******************************************************************************
Ephemeris / API_USER Mon Sep  4 11:27:33 2023 Pasadena, USA      / Horizons
*******************************************************************************
Target body name: 4145 Maximova (1981 SJ7)        {source: JPL#56}
Center body name: Solar System Barycenter (0)     {source: DE441}
Center-site name: BODY CENTER
*******************************************************************************
Start time      : A.D. 2023-Aug-12 00:00:00.0000 TDB
Stop  time      : A.D. 2023-Aug-13 00:00:00.0000 TDB
Step-size       : 2880 minutes
*******************************************************************************
Center geodetic : 0.0, 0.0, 0.0                   {E-lon(deg),Lat(deg),Alt(km)}
Center cylindric: 0.0, 0.0, 0.0                   {E-lon(deg),Dxy(km),Dz(km)}
Center radii    : (undefined)
Small perturbers: Yes                             {source: SB441-N16}
Output units    : KM-S
Calendar mode   : Mixed Julian/Gregorian
Output type     : GEOMETRIC cartesian states
Output format   : 2 (position and velocity)
Reference frame : Ecliptic of J2000.0
*******************************************************************************
Initial IAU76/J2000 heliocentric ecliptic osculating elements (au, days, deg.):
  EPOCH=  2457878.5 ! 2017-May-05.00 (TDB)         Residual RMS= .25328        
   EC= .2002453703330998   QR= 1.816784521615983   TP= 2458497.9651950551      
   OM= 292.7578305936229   W=  35.46064411344013   IN= 4.865366406450661       
  Equivalent ICRF heliocentric cartesian coordinates (au, au/d):
   X=-2.340405524447513E+00  Y= 1.331741374251500E+00  Z= 4.270978611050907E-01
  VX=-4.683415694635548E-03 VY=-7.115561730953867E-03 VZ=-3.773837191464594E-03
Asteroid physical parameters (km, seconds, rotational period in hours):        
   GM= n.a.                RAD= 2.633              ROTPER= 19.872              
   H= 13.66                G= .150                 B-V= n.a.                   
                           ALBEDO= .305            STYP= n.a.                  
*******************************************************************************
JDTDB
   X     Y     Z
   VX    VY    VZ
*******************************************************************************
$$SOE
2460168.500000000 = A.D. 2023-Aug-12 00:00:00.0000 TDB 
 X =-1.074455514161987E+08 Y = 3.677360378156874E+08 Z = 3.743713735839352E+06
 VX=-1.719345051099591E+01 VY=-2.144772995738952E+00 VZ=-1.421166543736896E+00
$$EOE
*******************************************************************************
 
TIME

  Barycentric Dynamical Time ("TDB" or T_eph) output was requested. This
continuous coordinate time is equivalent to the relativistic proper time
of a clock at rest in a reference frame co-moving with the solar system
barycenter but outside the system's gravity well. It is the independent
variable in the solar system relativistic equations of motion.

  TDB runs at a uniform rate of one SI second per second and is independent
of irregularities in Earth's rotation.
 
CALENDAR SYSTEM

  Mixed calendar mode was active such that calendar dates after AD 1582-Oct-15
(if any) are in the modern Gregorian system. Dates prior to 1582-Oct-5 (if any)
are in the Julian calendar system, which is automatically extended for dates
prior to its adoption on 45-Jan-1 BC.  The Julian calendar is useful for
matching historical dates. The Gregorian calendar more accurately corresponds
to the Earth's orbital motion and seasons. A "Gregorian-only" calendar mode is
available if such physical events are the primary interest.

REFERENCE FRAME AND COORDINATES

  Ecliptic at the standard reference epoch

    Reference epoch: J2000.0
    X-Y plane: adopted Earth orbital plane at the reference epoch
               Note: IAU76 obliquity of 84381.448 arcseconds wrt ICRF X-Y plane
    X-axis   : ICRF
    Z-axis   : perpendicular to the X-Y plane in the directional (+ or -) sense
               of Earth's north pole at the reference epoch.

  Symbol meaning:

    JDTDB    Julian Day Number, Barycentric Dynamical Time
      X      X-component of position vector (km)
      Y      Y-component of position vector (km)
      Z      Z-component of position vector (km)
      VX     X-component of velocity vector (km/sec)                           
      VY     Y-component of velocity vector (km/sec)                           
      VZ     Z-component of velocity vector (km/sec)                           

ABERRATIONS AND CORRECTIONS

 Geometric state vectors have NO corrections or aberrations applied.

Computations by ...

    Solar System Dynamics Group, Horizons On-Line Ephemeris System
    4800 Oak Grove Drive, Jet Propulsion Laboratory
    Pasadena, CA  91109   USA

    General site: https://ssd.jpl.nasa.gov/
    Mailing list: https://ssd.jpl.nasa.gov/email_list.html
    System news : https://ssd.jpl.nasa.gov/horizons/news.html
    User Guide  : https://ssd.jpl.nasa.gov/horizons/manual.html
    Connect     : browser        https://ssd.jpl.nasa.gov/horizons/app.html#/x
                  API            https://ssd-api.jpl.nasa.gov/doc/horizons.html
                  command-line   telnet ssd.jpl.nasa.gov 6775
                  e-mail/batch   https://ssd.jpl.nasa.gov/ftp/ssd/hrzn_batch.txt
                  scripts        https://ssd.jpl.nasa.gov/ftp/ssd/SCRIPTS
    Author      : Jon.D.Giorgini@jpl.nasa.gov
*******************************************************************************
